[{"OBJECT_NAME":"STARLINK-5335","OBJECT_ID":"2023-065F","EPOCH":"2026-03-09T22:00:01.999584","MEAN_MOTION":15.06821333,"ECCENTRICITY":0.00017724,"INCLINATION":43.0002,"RA_OF_ASC_NODE":209.3263,"ARG_OF_PERICENTER":312.5091,"MEAN_ANOMALY":145.9367,"EPHEMERIS_TYPE":0,"CLASSIFICATION_TYPE":"U","NORAD_CAT_ID":56508,"ELEMENT_SET_NO":999,"REV_AT_EPOCH":567,"BSTAR":0.0069096055,"MEAN_MOTION_DOT":0.0010608,"MEAN_MOTION_DDOT":0},{"OBJECT_NAME":"ICEYE-X37","OBJECT_ID":"2024-043E","EPOCH":"2026-03-09T21:28:27.980256","MEAN_MOTION":15.05207146,"ECCENTRICITY":0.00148076,"INCLINATION":97.8149,"RA_OF_ASC_NODE":204.4924,"ARG_OF_PERICENTER":351.2295,"MEAN_ANOMALY":8.867,"EPHEMERIS_TYPE":0,"CLASSIFICATION_TYPE":"U","NORAD_CAT_ID":59102,"ELEMENT_SET_NO":999,"REV_AT_EPOCH":11014,"BSTAR":0.00044484532,"MEAN_MOTION_DOT":6.299e-5,"MEAN_MOTION_DDOT":0}]
